{
"type": "FeatureCollection",
"name": "dong_thap_boundary",
"crs": { "type": "name", "properties": { "name": "urn:ogc:def:crs:OGC:1.3:CRS84" } },
"features": [
{ "type": "Feature", "properties": { "GID_1": "VNM.18_1", "GID_0": "VNM", "COUNTRY": "Vietnam", "NAME_1": "Đồng Tháp (mới)", "VARNAME_1": "DongThap", "NL_NAME_1": "NA", "TYPE_1": "Tỉnh", "ENGTYPE_1": "Province", "CC_1": "NA", "HASC_1": "VN.DT", "ISO_1": "NA", "NOTE": "Gộp từ Đồng Tháp + Tiền Giang sau sắp xếp hành chính 12/6/2025", "SOURCE": "GADM v4.1 – https://gadm.org/", "CRS": "EPSG:4326 (WGS84)", "COMPONENT_PROVINCES": "Đồng Tháp + Tiền Giang" }, "geometry": { "type": "MultiPolygon", "coordinates": [ [ [ [ 106.7917, 10.2231 ], [ 106.8014, 10.2084 ], [ 106.8006, 10.2067 ], [ 106.79, 10.2012 ], [ 106.7868, 10.2017 ], [ 106.7858, 10.2039 ], [ 106.7885, 10.2068 ], [ 106.7905, 10.2133 ], [ 106.789, 10.2182 ], [ 106.7844, 10.2231 ], [ 106.785, 10.2242 ], [ 106.7917, 10.2231 ] ] ], [ [ [ 106.7826, 10.2985 ], [ 106.7808, 10.2903 ], [ 106.7675, 10.2752 ], [ 106.7558, 10.2664 ], [ 106.7802, 10.2488 ], [ 106.7765, 10.237 ], [ 106.7799, 10.2298 ], [ 106.781, 10.2225 ], [ 106.777, 10.2179 ], [ 106.7566, 10.2055 ], [ 106.7543, 10.191 ], [ 106.7464, 10.1935 ], [ 106.7093, 10.2123 ], [ 106.7035, 10.22 ], [ 106.6912, 10.2309 ], [ 106.6778, 10.2367 ], [ 106.6567, 10.241 ], [ 106.6424, 10.2406 ], [ 106.5904, 10.2508 ], [ 106.542, 10.2656 ], [ 106.5321, 10.2703 ], [ 106.5185, 10.2821 ], [ 106.4976, 10.2913 ], [ 106.4772, 10.3066 ], [ 106.4573, 10.308 ], [ 106.4483, 10.3065 ], [ 106.3983, 10.3362 ], [ 106.3875, 10.3397 ], [ 106.3679, 10.3396 ], [ 106.3047, 10.3192 ], [ 106.3001, 10.3196 ], [ 106.288, 10.3306 ], [ 106.2548, 10.3216 ], [ 106.2215, 10.3176 ], [ 106.2056, 10.314 ], [ 106.1635, 10.2928 ], [ 106.1429, 10.2841 ], [ 106.1037, 10.2837 ], [ 106.0964, 10.2781 ], [ 106.0887, 10.2762 ], [ 106.0767, 10.2783 ], [ 106.0346, 10.2988 ], [ 105.992, 10.3305 ], [ 105.983, 10.3312 ], [ 105.9749, 10.3289 ], [ 105.9693, 10.3247 ], [ 105.9568, 10.311 ], [ 105.9373, 10.295 ], [ 105.9269, 10.2837 ], [ 105.9041, 10.2751 ], [ 105.8968, 10.2742 ], [ 105.8738, 10.2917 ], [ 105.8935, 10.276 ], [ 105.8847, 10.267 ], [ 105.8773, 10.2643 ], [ 105.8824, 10.2567 ], [ 105.8846, 10.2579 ], [ 105.884, 10.2537 ], [ 105.8862, 10.2523 ], [ 105.8903, 10.2443 ], [ 105.9019, 10.245 ], [ 105.9012, 10.2342 ], [ 105.9122, 10.2269 ], [ 105.9197, 10.2116 ], [ 105.9132, 10.1924 ], [ 105.8996, 10.1918 ], [ 105.8952, 10.1855 ], [ 105.8893, 10.1888 ], [ 105.8862, 10.1869 ], [ 105.8833, 10.1889 ], [ 105.8762, 10.1892 ], [ 105.8773, 10.1823 ], [ 105.8701, 10.1689 ], [ 105.8743, 10.1663 ], [ 105.8705, 10.1545 ], [ 105.8673, 10.1557 ], [ 105.8664, 10.154 ], [ 105.8627, 10.1549 ], [ 105.8516, 10.1601 ], [ 105.8491, 10.1502 ], [ 105.8253, 10.1489 ], [ 105.8185, 10.1495 ], [ 105.8155, 10.1528 ], [ 105.8011, 10.1555 ], [ 105.7748, 10.189 ], [ 105.7658, 10.1793 ], [ 105.7587, 10.183 ], [ 105.7477, 10.1969 ], [ 105.7278, 10.2047 ], [ 105.6854, 10.1435 ], [ 105.6851, 10.1412 ], [ 105.687, 10.1391 ], [ 105.6823, 10.1345 ], [ 105.6569, 10.1513 ], [ 105.6463, 10.1668 ], [ 105.6249, 10.1864 ], [ 105.6165, 10.2137 ], [ 105.6111, 10.2236 ], [ 105.5993, 10.2391 ], [ 105.5645, 10.274 ], [ 105.5421, 10.2927 ], [ 105.5127, 10.308 ], [ 105.4924, 10.3289 ], [ 105.4877, 10.3346 ], [ 105.4915, 10.3384 ], [ 105.4911, 10.3455 ], [ 105.4976, 10.3501 ], [ 105.5011, 10.3549 ], [ 105.5084, 10.3561 ], [ 105.5142, 10.3619 ], [ 105.521, 10.3634 ], [ 105.5206, 10.3695 ], [ 105.5279, 10.3744 ], [ 105.5288, 10.3792 ], [ 105.5238, 10.4001 ], [ 105.5297, 10.4004 ], [ 105.5318, 10.4082 ], [ 105.5366, 10.4098 ], [ 105.5396, 10.4132 ], [ 105.5453, 10.4129 ], [ 105.5522, 10.4165 ], [ 105.5523, 10.4188 ], [ 105.5465, 10.4205 ], [ 105.5495, 10.4252 ], [ 105.5486, 10.4295 ], [ 105.5514, 10.4294 ], [ 105.5548, 10.4343 ], [ 105.5668, 10.4292 ], [ 105.574, 10.4287 ], [ 105.5728, 10.4396 ], [ 105.5753, 10.4474 ], [ 105.5736, 10.4685 ], [ 105.5577, 10.5081 ], [ 105.5503, 10.5213 ], [ 105.5442, 10.5281 ], [ 105.532, 10.5378 ], [ 105.5132, 10.547 ], [ 105.5099, 10.5453 ], [ 105.5014, 10.5459 ], [ 105.4884, 10.5423 ], [ 105.4823, 10.5357 ], [ 105.4787, 10.5355 ], [ 105.4458, 10.5528 ], [ 105.4188, 10.5497 ], [ 105.4151, 10.5505 ], [ 105.4087, 10.5542 ], [ 105.3937, 10.5689 ], [ 105.3864, 10.5714 ], [ 105.3753, 10.5714 ], [ 105.3711, 10.5732 ], [ 105.3469, 10.6238 ], [ 105.3398, 10.6494 ], [ 105.338, 10.6734 ], [ 105.3461, 10.6924 ], [ 105.3503, 10.7148 ], [ 105.3425, 10.7219 ], [ 105.3371, 10.7233 ], [ 105.329, 10.7229 ], [ 105.3029, 10.7164 ], [ 105.2947, 10.7166 ], [ 105.2785, 10.723 ], [ 105.2755, 10.7285 ], [ 105.2784, 10.7337 ], [ 105.3, 10.747 ], [ 105.3041, 10.7536 ], [ 105.3038, 10.7588 ], [ 105.2998, 10.7622 ], [ 105.2724, 10.7647 ], [ 105.2606, 10.7723 ], [ 105.2584, 10.7842 ], [ 105.2619, 10.7919 ], [ 105.2613, 10.7999 ], [ 105.2347, 10.8057 ], [ 105.2196, 10.8266 ], [ 105.2095, 10.8495 ], [ 105.1993, 10.8453 ], [ 105.1962, 10.8452 ], [ 105.1942, 10.8471 ], [ 105.1903, 10.8551 ], [ 105.1854, 10.8832 ], [ 105.1854, 10.8969 ], [ 105.1889, 10.9116 ], [ 105.1977, 10.9114 ], [ 105.2141, 10.9019 ], [ 105.2387, 10.8928 ], [ 105.2649, 10.8968 ], [ 105.266, 10.8944 ], [ 105.2747, 10.8885 ], [ 105.2851, 10.8875 ], [ 105.3, 10.8784 ], [ 105.3378, 10.8602 ], [ 105.3386, 10.866 ], [ 105.341, 10.8678 ], [ 105.3465, 10.868 ], [ 105.3533, 10.8787 ], [ 105.3549, 10.8801 ], [ 105.3596, 10.8801 ], [ 105.3596, 10.8869 ], [ 105.3686, 10.8883 ], [ 105.3692, 10.8967 ], [ 105.3717, 10.8982 ], [ 105.3723, 10.9021 ], [ 105.3739, 10.9039 ], [ 105.3785, 10.9022 ], [ 105.3806, 10.903 ], [ 105.3792, 10.9056 ], [ 105.3808, 10.9068 ], [ 105.3809, 10.9104 ], [ 105.3836, 10.911 ], [ 105.3849, 10.9169 ], [ 105.3885, 10.9206 ], [ 105.3917, 10.9211 ], [ 105.3932, 10.9241 ], [ 105.3968, 10.9238 ], [ 105.3969, 10.9271 ], [ 105.3995, 10.9264 ], [ 105.4002, 10.928 ], [ 105.4081, 10.9312 ], [ 105.4065, 10.933 ], [ 105.4069, 10.9356 ], [ 105.4115, 10.9393 ], [ 105.4111, 10.9437 ], [ 105.4236, 10.9648 ], [ 105.426, 10.9722 ], [ 105.4331, 10.973 ], [ 105.4366, 10.9677 ], [ 105.4397, 10.9659 ], [ 105.442, 10.9608 ], [ 105.4516, 10.955 ], [ 105.4562, 10.956 ], [ 105.4578, 10.9591 ], [ 105.4646, 10.9641 ], [ 105.47, 10.9631 ], [ 105.4735, 10.9647 ], [ 105.4832, 10.9577 ], [ 105.4827, 10.9537 ], [ 105.4842, 10.9519 ], [ 105.4961, 10.9481 ], [ 105.497, 10.9524 ], [ 105.4991, 10.9531 ], [ 105.5163, 10.9224 ], [ 105.5474, 10.9099 ], [ 105.5826, 10.8919 ], [ 105.6127, 10.832 ], [ 105.5959, 10.8306 ], [ 105.7806, 10.6588 ], [ 105.8079, 10.6536 ], [ 105.8347, 10.6383 ], [ 105.91, 10.5386 ], [ 105.9417, 10.5365 ], [ 106.1024, 10.5228 ], [ 106.1012, 10.5758 ], [ 106.1979, 10.5804 ], [ 106.2047, 10.5792 ], [ 106.2861, 10.587 ], [ 106.3104, 10.5656 ], [ 106.3187, 10.5707 ], [ 106.3213, 10.5691 ], [ 106.3361, 10.5503 ], [ 106.3404, 10.5478 ], [ 106.3402, 10.5463 ], [ 106.3461, 10.5433 ], [ 106.3483, 10.5448 ], [ 106.3471, 10.542 ], [ 106.3491, 10.5404 ], [ 106.3476, 10.5288 ], [ 106.351, 10.5287 ], [ 106.3514, 10.5265 ], [ 106.3559, 10.5225 ], [ 106.3589, 10.5221 ], [ 106.3612, 10.5236 ], [ 106.3694, 10.518 ], [ 106.3665, 10.5111 ], [ 106.3716, 10.5065 ], [ 106.3711, 10.5015 ], [ 106.3687, 10.498 ], [ 106.3744, 10.4942 ], [ 106.3705, 10.4877 ], [ 106.3789, 10.483 ], [ 106.3796, 10.4801 ], [ 106.3842, 10.4793 ], [ 106.3889, 10.4756 ], [ 106.391, 10.4778 ], [ 106.3931, 10.4776 ], [ 106.396, 10.4857 ], [ 106.4003, 10.4845 ], [ 106.4036, 10.4933 ], [ 106.4041, 10.4917 ], [ 106.4078, 10.492 ], [ 106.41, 10.4894 ], [ 106.417, 10.4881 ], [ 106.4174, 10.482 ], [ 106.4239, 10.4786 ], [ 106.4259, 10.4738 ], [ 106.4302, 10.4739 ], [ 106.4344, 10.4686 ], [ 106.4358, 10.4695 ], [ 106.4395, 10.4662 ], [ 106.4421, 10.466 ], [ 106.4415, 10.4586 ], [ 106.4528, 10.4533 ], [ 106.4538, 10.4511 ], [ 106.4475, 10.4512 ], [ 106.4426, 10.4444 ], [ 106.4396, 10.4454 ], [ 106.4355, 10.4391 ], [ 106.4276, 10.4367 ], [ 106.4273, 10.4339 ], [ 106.4179, 10.4348 ], [ 106.4154, 10.4334 ], [ 106.4149, 10.4297 ], [ 106.4212, 10.4277 ], [ 106.4203, 10.4224 ], [ 106.4264, 10.4143 ], [ 106.4247, 10.4113 ], [ 106.4279, 10.4098 ], [ 106.4313, 10.415 ], [ 106.4392, 10.4117 ], [ 106.4405, 10.4151 ], [ 106.4492, 10.4112 ], [ 106.4519, 10.4134 ], [ 106.4602, 10.4049 ], [ 106.4546, 10.4007 ], [ 106.4489, 10.4044 ], [ 106.4488, 10.3984 ], [ 106.454, 10.4003 ], [ 106.4562, 10.3946 ], [ 106.4589, 10.3951 ], [ 106.4633, 10.4004 ], [ 106.4679, 10.3965 ], [ 106.4727, 10.3987 ], [ 106.4801, 10.3967 ], [ 106.4818, 10.4048 ], [ 106.4862, 10.4034 ], [ 106.4865, 10.4087 ], [ 106.4929, 10.4138 ], [ 106.4968, 10.4145 ], [ 106.4973, 10.4167 ], [ 106.4993, 10.4151 ], [ 106.5046, 10.4229 ], [ 106.5084, 10.4227 ], [ 106.5097, 10.4276 ], [ 106.513, 10.4288 ], [ 106.5145, 10.4258 ], [ 106.5186, 10.4242 ], [ 106.5252, 10.4317 ], [ 106.5299, 10.4333 ], [ 106.5373, 10.4206 ], [ 106.5461, 10.4295 ], [ 106.5489, 10.4248 ], [ 106.5583, 10.4245 ], [ 106.5577, 10.4162 ], [ 106.559, 10.4131 ], [ 106.5673, 10.4148 ], [ 106.5713, 10.412 ], [ 106.5892, 10.4184 ], [ 106.584, 10.4325 ], [ 106.5853, 10.4358 ], [ 106.6012, 10.4377 ], [ 106.6117, 10.4452 ], [ 106.6281, 10.4523 ], [ 106.6332, 10.4594 ], [ 106.639, 10.4793 ], [ 106.6445, 10.4832 ], [ 106.6533, 10.4829 ], [ 106.6586, 10.4771 ], [ 106.6607, 10.4667 ], [ 106.6599, 10.451 ], [ 106.6614, 10.4456 ], [ 106.6648, 10.4416 ], [ 106.6715, 10.4385 ], [ 106.6821, 10.4398 ], [ 106.6887, 10.445 ], [ 106.7049, 10.4711 ], [ 106.7359, 10.4981 ], [ 106.744, 10.5 ], [ 106.7454, 10.4884 ], [ 106.7569, 10.4626 ], [ 106.7632, 10.4525 ], [ 106.7777, 10.4331 ], [ 106.8151, 10.3913 ], [ 106.8225, 10.3774 ], [ 106.7827, 10.3756 ], [ 106.7819, 10.3144 ], [ 106.7806, 10.3113 ], [ 106.7825, 10.3083 ], [ 106.7826, 10.2985 ] ] ] ] } }
]
}
